[{"OBJECT_NAME":"STARLINK-34351","OBJECT_ID":"2025-127T","EPOCH":"2025-10-19T05:02:32.194176","MEAN_MOTION":15.27599343,"ECCENTRICITY":0.00011789,"INCLINATION":43.0007,"RA_OF_ASC_NODE":258.4249,"ARG_OF_PERICENTER":251.9894,"MEAN_ANOMALY":108.083,"EPHEMERIS_TYPE":0,"CLASSIFICATION_TYPE":"U","NORAD_CAT_ID":64387,"ELEMENT_SET_NO":999,"REV_AT_EPOCH":2083,"BSTAR":0.0017711621,"MEAN_MOTION_DOT":0.00048828,"MEAN_MOTION_DDOT":0},{"OBJECT_NAME":"STARLINK-34198","OBJECT_ID":"2025-127U","EPOCH":"2025-10-19T05:00:39.717792","MEAN_MOTION":15.27614484,"ECCENTRICITY":0.00018267,"INCLINATION":42.9999,"RA_OF_ASC_NODE":258.4196,"ARG_OF_PERICENTER":268.6519,"MEAN_ANOMALY":91.4123,"EPHEMERIS_TYPE":0,"CLASSIFICATION_TYPE":"U","NORAD_CAT_ID":64388,"ELEMENT_SET_NO":999,"REV_AT_EPOCH":2083,"BSTAR":0.00214595,"MEAN_MOTION_DOT":0.00059329,"MEAN_MOTION_DDOT":0},{"OBJECT_NAME":"STARLINK-34279","OBJECT_ID":"2025-127V","EPOCH":"2025-10-19T04:57:09.643968","MEAN_MOTION":15.27633601,"ECCENTRICITY":7.54e-5,"INCLINATION":43.0012,"RA_OF_ASC_NODE":259.2706,"ARG_OF_PERICENTER":240.1798,"MEAN_ANOMALY":119.8979,"EPHEMERIS_TYPE":0,"CLASSIFICATION_TYPE":"U","NORAD_CAT_ID":64389,"ELEMENT_SET_NO":999,"REV_AT_EPOCH":2082,"BSTAR":0.0017287573,"MEAN_MOTION_DOT":0.00047696,"MEAN_MOTION_DDOT":0},{"OBJECT_NAME":"STARLINK-34292","OBJECT_ID":"2025-127W","EPOCH":"2025-10-18T08:01:41.286432","MEAN_MOTION":15.27627952,"ECCENTRICITY":0.00015438,"INCLINATION":43.0028,"RA_OF_ASC_NODE":263.9049,"ARG_OF_PERICENTER":256.6705,"MEAN_ANOMALY":103.3974,"EPHEMERIS_TYPE":0,"CLASSIFICATION_TYPE":"U","NORAD_CAT_ID":64390,"ELEMENT_SET_NO":999,"REV_AT_EPOCH":2069,"BSTAR":0.0013050233,"MEAN_MOTION_DOT":0.00035877,"MEAN_MOTION_DDOT":0},{"OBJECT_NAME":"STARLINK-34278","OBJECT_ID":"2025-127X","EPOCH":"2025-10-19T05:08:04.016832","MEAN_MOTION":15.27619852,"ECCENTRICITY":0.00012694,"INCLINATION":43.0025,"RA_OF_ASC_NODE":258.4557,"ARG_OF_PERICENTER":244.5892,"MEAN_ANOMALY":115.4828,"EPHEMERIS_TYPE":0,"CLASSIFICATION_TYPE":"U","NORAD_CAT_ID":64391,"ELEMENT_SET_NO":999,"REV_AT_EPOCH":2083,"BSTAR":0.0021771953,"MEAN_MOTION_DOT":0.00060213,"MEAN_MOTION_DDOT":0},{"OBJECT_NAME":"STARLINK-33802","OBJECT_ID":"2025-127Y","EPOCH":"2025-10-19T04:42:22.717728","MEAN_MOTION":15.27612075,"ECCENTRICITY":0.00054843,"INCLINATION":42.9978,"RA_OF_ASC_NODE":259.1947,"ARG_OF_PERICENTER":273.0156,"MEAN_ANOMALY":87.0068,"EPHEMERIS_TYPE":0,"CLASSIFICATION_TYPE":"U","NORAD_CAT_ID":64392,"ELEMENT_SET_NO":999,"REV_AT_EPOCH":2087,"BSTAR":0.0033289731,"MEAN_MOTION_DOT":0.00092621,"MEAN_MOTION_DDOT":0},{"OBJECT_NAME":"STARLINK-34419","OBJECT_ID":"2025-129A","EPOCH":"2025-10-19T02:13:25.228704","MEAN_MOTION":14.98349129,"ECCENTRICITY":0.00034895,"INCLINATION":70.0013,"RA_OF_ASC_NODE":71.6185,"ARG_OF_PERICENTER":270.1739,"MEAN_ANOMALY":89.9021,"EPHEMERIS_TYPE":0,"CLASSIFICATION_TYPE":"U","NORAD_CAT_ID":64412,"ELEMENT_SET_NO":999,"REV_AT_EPOCH":2009,"BSTAR":0.00055753532,"MEAN_MOTION_DOT":6.569e-5,"MEAN_MOTION_DDOT":0},{"OBJECT_NAME":"STARLINK-34275","OBJECT_ID":"2025-129B","EPOCH":"2025-10-19T03:19:44.653728","MEAN_MOTION":14.98325204,"ECCENTRICITY":0.00034493,"INCLINATION":70.0005,"RA_OF_ASC_NODE":71.3849,"ARG_OF_PERICENTER":272.8872,"MEAN_ANOMALY":87.1892,"EPHEMERIS_TYPE":0,"CLASSIFICATION_TYPE":"U","NORAD_CAT_ID":64413,"ELEMENT_SET_NO":999,"REV_AT_EPOCH":2008,"BSTAR":0.0011917379,"MEAN_MOTION_DOT":0.00014154,"MEAN_MOTION_DDOT":0},{"OBJECT_NAME":"STARLINK-34225","OBJECT_ID":"2025-129C","EPOCH":"2025-10-19T02:25:26.773248","MEAN_MOTION":14.98336876,"ECCENTRICITY":0.00026509,"INCLINATION":70.0021,"RA_OF_ASC_NODE":71.6521,"ARG_OF_PERICENTER":271.2908,"MEAN_ANOMALY":88.7947,"EPHEMERIS_TYPE":0,"CLASSIFICATION_TYPE":"U","NORAD_CAT_ID":64414,"ELEMENT_SET_NO":999,"REV_AT_EPOCH":2007,"BSTAR":0.00052814766,"MEAN_MOTION_DOT":6.215e-5,"MEAN_MOTION_DDOT":0},{"OBJECT_NAME":"STARLINK-34422","OBJECT_ID":"2025-129D","EPOCH":"2025-10-18T19:30:51.381216","MEAN_MOTION":14.98347003,"ECCENTRICITY":0.00032959,"INCLINATION":70.0007,"RA_OF_ASC_NODE":72.2589,"ARG_OF_PERICENTER":270.3394,"MEAN_ANOMALY":89.7387,"EPHEMERIS_TYPE":0,"CLASSIFICATION_TYPE":"U","NORAD_CAT_ID":64415,"ELEMENT_SET_NO":999,"REV_AT_EPOCH":1997,"BSTAR":0.00082459228,"MEAN_MOTION_DOT":9.764e-5,"MEAN_MOTION_DDOT":0},{"OBJECT_NAME":"STARLINK-34514","OBJECT_ID":"2025-129E","EPOCH":"2025-10-18T18:36:45.429120","MEAN_MOTION":14.98339573,"ECCENTRICITY":0.00032421,"INCLINATION":70.0006,"RA_OF_ASC_NODE":72.1273,"ARG_OF_PERICENTER":270.2678,"MEAN_ANOMALY":89.811,"EPHEMERIS_TYPE":0,"CLASSIFICATION_TYPE":"U","NORAD_CAT_ID":64416,"ELEMENT_SET_NO":999,"REV_AT_EPOCH":2003,"BSTAR":0.00032165072,"MEAN_MOTION_DOT":3.748e-5,"MEAN_MOTION_DDOT":0},{"OBJECT_NAME":"STARLINK-34487","OBJECT_ID":"2025-129F","EPOCH":"2025-10-18T18:42:45.991872","MEAN_MOTION":14.98347466,"ECCENTRICITY":0.00033692,"INCLINATION":70.0004,"RA_OF_ASC_NODE":72.1385,"ARG_OF_PERICENTER":270.8238,"MEAN_ANOMALY":89.2535,"EPHEMERIS_TYPE":0,"CLASSIFICATION_TYPE":"U","NORAD_CAT_ID":64417,"ELEMENT_SET_NO":999,"REV_AT_EPOCH":1997,"BSTAR":0.00067687701,"MEAN_MOTION_DOT":7.996e-5,"MEAN_MOTION_DDOT":0},{"OBJECT_NAME":"STARLINK-34461","OBJECT_ID":"2025-129G","EPOCH":"2025-10-19T02:19:40.522656","MEAN_MOTION":14.98341696,"ECCENTRICITY":0.00024548,"INCLINATION":70.0018,"RA_OF_ASC_NODE":71.6404,"ARG_OF_PERICENTER":272.0696,"MEAN_ANOMALY":88.0182,"EPHEMERIS_TYPE":0,"CLASSIFICATION_TYPE":"U","NORAD_CAT_ID":64418,"ELEMENT_SET_NO":999,"REV_AT_EPOCH":2007,"BSTAR":0.00052426762,"MEAN_MOTION_DOT":6.17e-5,"MEAN_MOTION_DDOT":0},{"OBJECT_NAME":"STARLINK-34512","OBJECT_ID":"2025-129H","EPOCH":"2025-10-18T19:36:51.988032","MEAN_MOTION":14.98348527,"ECCENTRICITY":0.00032824,"INCLINATION":70.0001,"RA_OF_ASC_NODE":72.2653,"ARG_OF_PERICENTER":270.0502,"MEAN_ANOMALY":90.0281,"EPHEMERIS_TYPE":0,"CLASSIFICATION_TYPE":"U","NORAD_CAT_ID":64419,"ELEMENT_SET_NO":999,"REV_AT_EPOCH":1997,"BSTAR":0.00077833378,"MEAN_MOTION_DOT":9.211e-5,"MEAN_MOTION_DDOT":0},{"OBJECT_NAME":"STARLINK-34503","OBJECT_ID":"2025-129J","EPOCH":"2025-10-19T02:07:39.078336","MEAN_MOTION":14.98342712,"ECCENTRICITY":0.00030874,"INCLINATION":70.0016,"RA_OF_ASC_NODE":71.6103,"ARG_OF_PERICENTER":271.6209,"MEAN_ANOMALY":88.4597,"EPHEMERIS_TYPE":0,"CLASSIFICATION_TYPE":"U","NORAD_CAT_ID":64420,"ELEMENT_SET_NO":999,"REV_AT_EPOCH":2001,"BSTAR":0.00049908461,"MEAN_MOTION_DOT":5.869e-5,"MEAN_MOTION_DDOT":0},{"OBJECT_NAME":"STARLINK-34498","OBJECT_ID":"2025-129K","EPOCH":"2025-10-18T19:24:51.000768","MEAN_MOTION":14.98360413,"ECCENTRICITY":0.00029927,"INCLINATION":70.0007,"RA_OF_ASC_NODE":72.2448,"ARG_OF_PERICENTER":268.053,"MEAN_ANOMALY":92.0287,"EPHEMERIS_TYPE":0,"CLASSIFICATION_TYPE":"U","NORAD_CAT_ID":64421,"ELEMENT_SET_NO":999,"REV_AT_EPOCH":2003,"BSTAR":0.00073293483,"MEAN_MOTION_DOT":8.67e-5,"MEAN_MOTION_DDOT":0},{"OBJECT_NAME":"STARLINK-34434","OBJECT_ID":"2025-129L","EPOCH":"2025-10-19T02:19:26.239008","MEAN_MOTION":14.98340349,"ECCENTRICITY":0.00025116,"INCLINATION":70.0026,"RA_OF_ASC_NODE":71.6428,"ARG_OF_PERICENTER":269.3016,"MEAN_ANOMALY":90.7855,"EPHEMERIS_TYPE":0,"CLASSIFICATION_TYPE":"U","NORAD_CAT_ID":64422,"ELEMENT_SET_NO":999,"REV_AT_EPOCH":2007,"BSTAR":0.00058547332,"MEAN_MOTION_DOT":6.901e-5,"MEAN_MOTION_DDOT":0},{"OBJECT_NAME":"STARLINK-34467","OBJECT_ID":"2025-129M","EPOCH":"2025-10-19T03:07:29.529696","MEAN_MOTION":14.98358243,"ECCENTRICITY":0.00031183,"INCLINATION":70.0025,"RA_OF_ASC_NODE":71.357,"ARG_OF_PERICENTER":272.564,"MEAN_ANOMALY":87.5163,"EPHEMERIS_TYPE":0,"CLASSIFICATION_TYPE":"U","NORAD_CAT_ID":64423,"ELEMENT_SET_NO":999,"REV_AT_EPOCH":2008,"BSTAR":0.00068633265,"MEAN_MOTION_DOT":8.112e-5,"MEAN_MOTION_DDOT":0},{"OBJECT_NAME":"STARLINK-34468","OBJECT_ID":"2025-129N","EPOCH":"2025-10-19T02:25:43.378464","MEAN_MOTION":14.98339307,"ECCENTRICITY":0.00027464,"INCLINATION":70.0022,"RA_OF_ASC_NODE":71.6561,"ARG_OF_PERICENTER":276.3348,"MEAN_ANOMALY":83.7498,"EPHEMERIS_TYPE":0,"CLASSIFICATION_TYPE":"U","NORAD_CAT_ID":64424,"ELEMENT_SET_NO":999,"REV_AT_EPOCH":2007,"BSTAR":0.0021763082,"MEAN_MOTION_DOT":0.00025977,"MEAN_MOTION_DDOT":0},{"OBJECT_NAME":"STARLINK-34452","OBJECT_ID":"2025-129P","EPOCH":"2025-10-19T02:49:41.759616","MEAN_MOTION":14.98332166,"ECCENTRICITY":0.00015025,"INCLINATION":70.0027,"RA_OF_ASC_NODE":71.3096,"ARG_OF_PERICENTER":263.3176,"MEAN_ANOMALY":96.7812,"EPHEMERIS_TYPE":0,"CLASSIFICATION_TYPE":"U","NORAD_CAT_ID":64425,"ELEMENT_SET_NO":999,"REV_AT_EPOCH":2008,"BSTAR":0.00077778328,"MEAN_MOTION_DOT":9.2e-5,"MEAN_MOTION_DDOT":0},{"OBJECT_NAME":"STARLINK-34432","OBJECT_ID":"2025-129Q","EPOCH":"2025-10-19T03:13:31.942272","MEAN_MOTION":14.98352783,"ECCENTRICITY":0.00036286,"INCLINATION":70.002,"RA_OF_ASC_NODE":71.3645,"ARG_OF_PERICENTER":266.4878,"MEAN_ANOMALY":93.5866,"EPHEMERIS_TYPE":0,"CLASSIFICATION_TYPE":"U","NORAD_CAT_ID":64426,"ELEMENT_SET_NO":999,"REV_AT_EPOCH":2002,"BSTAR":0.003346033,"MEAN_MOTION_DOT":0.00040086,"MEAN_MOTION_DDOT":0},{"OBJECT_NAME":"STARLINK-34480","OBJECT_ID":"2025-129R","EPOCH":"2025-10-19T02:49:27.540768","MEAN_MOTION":14.98330328,"ECCENTRICITY":0.00014141,"INCLINATION":70.0034,"RA_OF_ASC_NODE":71.306,"ARG_OF_PERICENTER":269.3823,"MEAN_ANOMALY":90.7174,"EPHEMERIS_TYPE":0,"CLASSIFICATION_TYPE":"U","NORAD_CAT_ID":64427,"ELEMENT_SET_NO":999,"REV_AT_EPOCH":2008,"BSTAR":0.00068541053,"MEAN_MOTION_DOT":8.094e-5,"MEAN_MOTION_DDOT":0},{"OBJECT_NAME":"STARLINK-34495","OBJECT_ID":"2025-129S","EPOCH":"2025-10-19T03:01:28.490016","MEAN_MOTION":14.9834068,"ECCENTRICITY":0.00031523,"INCLINATION":70.0003,"RA_OF_ASC_NODE":71.3426,"ARG_OF_PERICENTER":270.2901,"MEAN_ANOMALY":89.7897,"EPHEMERIS_TYPE":0,"CLASSIFICATION_TYPE":"U","NORAD_CAT_ID":64428,"ELEMENT_SET_NO":999,"REV_AT_EPOCH":2008,"BSTAR":0.00070690895,"MEAN_MOTION_DOT":8.354e-5,"MEAN_MOTION_DDOT":0}]
